[{"OBJECT_NAME":"OBJECT M","OBJECT_ID":"2024-205M","EPOCH":"2026-03-09T22:23:47.520096","MEAN_MOTION":15.27663844,"ECCENTRICITY":0.00036602,"INCLINATION":97.3915,"RA_OF_ASC_NODE":144.193,"ARG_OF_PERICENTER":310.2554,"MEAN_ANOMALY":49.8364,"EPHEMERIS_TYPE":0,"CLASSIFICATION_TYPE":"U","NORAD_CAT_ID":61905,"ELEMENT_SET_NO":999,"REV_AT_EPOCH":7334,"BSTAR":0.00036391974,"MEAN_MOTION_DOT":9.771e-5,"MEAN_MOTION_DDOT":0},{"OBJECT_NAME":"STARLINK-35470","OBJECT_ID":"2025-259J","EPOCH":"2026-03-09T22:51:18.565344","MEAN_MOTION":15.27596823,"ECCENTRICITY":0.00014858,"INCLINATION":43.0046,"RA_OF_ASC_NODE":272.6763,"ARG_OF_PERICENTER":275.1198,"MEAN_ANOMALY":84.9484,"EPHEMERIS_TYPE":0,"CLASSIFICATION_TYPE":"U","NORAD_CAT_ID":66430,"ELEMENT_SET_NO":999,"REV_AT_EPOCH":1953,"BSTAR":0.001211249,"MEAN_MOTION_DOT":0.00033236,"MEAN_MOTION_DDOT":0}]
